#aV2019  7  5  0  0  0.00000000     288 DD+AD WGS84 FIT  NGA
## 2060 432000.00000000   300.00000000 58669 0.0000000000000
+   31     1  2  3  5  6  7  8  9 10 11 12 13 14 15 16 17 18
+         19 20 21 22 23 24 25 26 27 28 29 30 31 32  0  0  0
+          0  0  0  0  0  0  0  0  0  0  0  0  0  0  0  0  0
+          0  0  0  0  0  0  0  0  0  0  0  0  0  0  0  0  0
+          0  0  0  0  0  0  0  0  0  0  0  0  0  0  0  0  0
++         2  2  2  2  2  2  2  2  2  2  2  2  2  2  2  2  2
++         2  2  2  2  2  2  2  2  2  2  2  2  2  2  0  0  0
++         0  0  0  0  0  0  0  0  0  0  0  0  0  0  0  0  0
++         0  0  0  0  0  0  0  0  0  0  0  0  0  0  0  0  0
++         0  0  0  0  0  0  0  0  0  0  0  0  0  0  0  0  0
%c cc cc ccc ccc cccc cccc cccc cccc ccccc ccccc ccccc ccccc
%c cc cc ccc ccc cccc cccc cccc cccc ccccc ccccc ccccc ccccc
%f  0.0000000  0.000000000  0.00000000000  0.000000000000000
%f  0.0000000  0.000000000  0.00000000000  0.000000000000000
%i    0    0    0    0      0      0      0      0         0
%i    0    0    0    0      0      0      0      0         0
/*      NGA, ST. LOUIS,MO.                                  
/*   EPHEMERIS COMPUTED FROM 2 DAYS OF DATA                 
/*   EPOCHA v5 SMOOTHER                                     
/*   G1762 IERS2010 SATAF SATAPC                            
*  2019  7  5 13 45  0.00000000
P  1  13932.540516 -22398.959529    200.500743    -59.030301                    
V  1   1963.641843   1782.505582  32310.989844     -0.102563                    
P  2 -17875.962939   7521.389327 -17476.345772   -253.194598                    
V  2   9130.404786 -21721.307635 -18210.528808     -0.087485                    
P  3  13038.725956 -13017.019604 -19142.965560    182.691502                    
V  3  24199.428399   1889.721634  15320.714631     -0.018707                    
P  5 -26331.482251   2507.190597   3318.432559      0.210299                    
V  5  -4361.025530  -2927.225273 -31014.458728     -0.002091                    
P  6 -12584.094309  -7914.288235 -21968.232380    158.459323                    
V  6  14475.228216 -23906.927796    352.814452     -0.110588                    
P  7   3301.490411 -22758.396673  13125.343633    -58.206795                    
V  7  10973.450283 -12517.492079 -25451.732727     -0.076885                    
P  8  10906.521294 -10850.629932  21659.053895   -150.044189                    
V  8  13953.370793  23617.482664   5012.926095     -0.014611                    
P  9  -6495.168613 -24195.024189  -8848.467332    377.432071                    
V  9   7989.584820   8341.220377 -28806.727363     -0.081062                    
P 10  17865.389780  11532.549631  16103.486501     -5.927639                    
V 10 -20273.253437   1322.142120  21431.924050     -0.126428                    
P 11   9279.047508 -23152.570635   8964.882527   -568.564210                    
V 11   2691.506337  12453.047378  27468.874820      0.091111                    
P 12 -15908.546382  10901.792204 -18402.497786    226.771828                    
V 12 -22736.059736  -3254.244247  18097.653931     -0.035900                    
P 13 -15655.070208    447.781807  21349.995181    -56.004535                    
V 13  -9623.095193 -25591.318783  -6434.741903      0.017075                    
P 14  17197.077127  14620.993497 -13817.300496    -72.952016                    
V 14   5432.188130  17324.801992  24336.116522      0.017847                    
P 15 -10249.523640  12553.302540  20727.320649   -302.827143                    
V 15 -16002.639959 -21919.319948   5684.027751      0.023957                    
P 16  26528.950962    502.051375   3538.271371    -53.672452                    
V 16   4449.242365   2238.918601 -31542.003998     -0.031772                    
P 17 -14990.558761 -20771.009703  -6784.374558     83.404231                    
V 17  -2158.670788  -9077.790159  30639.930443      0.066011                    
P 18  16822.936120 -18342.376565   8591.876256     67.451192                    
V 18  -2919.933845  11663.979276  29069.297086      0.030142                    
P 19 -16649.519742 -15685.942365 -13751.638118   -298.018618                    
V 19  -5114.933673 -16229.616110  25323.260808      0.048128                    
P 20   8852.163373  14376.752208  20431.543284    525.784739                    
V 20 -26024.301225   3612.670879   8530.899929      0.002123                    
P 21   2459.600471  21123.547788  16808.487493   -160.368673                    
V 21 -10797.508398  16730.537773 -20262.957216      0.070937                    
P 22  19661.763676 -11221.772395 -13593.673016   -726.874228                    
V 22  17895.935354   2144.369845  23801.794271     -0.052973                    
P 23   4434.272183 -18514.384576 -18010.690096   -178.660143                    
V 23  13685.984420  19552.067886 -16814.604922      0.017598                    
P 24 -14594.691934  21659.581495   3556.772429    -68.428053                    
V 24  -1078.586337  -5987.906666  31024.439973     -0.005044                    
P 25  -1511.957005  15062.380767 -22029.260857   -771.141520                    
V 25 -27427.064680   -881.393399   1536.735892     -0.028474                    
P 26  25300.758564   4790.634896  -6897.013645    243.802956                    
V 26  -8686.086640   2854.590195 -29792.501348      0.093251                    
P 27  16973.876626   2558.016800  20238.932520   -176.434260                    
V 27  11812.221249  22967.566644 -12448.220990     -0.105553                    
P 28 -16312.506065 -13162.454195  16856.841648    766.820529                    
V 28  20276.441332    973.383310  21243.129611     -0.004152                    
P 29   2131.465378  23550.893280 -12118.695943    159.218988                    
V 29  -8013.451183 -13138.668240 -27035.827515     -0.096850                    
P 30  -5646.112711 -17132.855697  19460.732981   -137.145389                    
V 30  15019.375111 -19772.362325 -13262.028022     -0.074737                    
P 31  14044.527141   6251.414715 -21685.243133     26.398500                    
V 31 -14889.570605  23128.390499  -2540.304049     -0.026078                    
P 32  16746.975013  19316.294361  -7363.358853    -15.278223                    
V 32   2229.040803   9534.144277  29703.699593      0.155277                    
EOF
